STARLINK-6234           
1 57331U 23099D   25363.15857475 -.00002342  00000+0 -15830-3 0  9995
2 57331  43.0048 272.5017 0001027 276.0888  83.9837 15.02547733135502
STARLINK-5831           
1 57332U 23099E   25363.08988158  .00000705  00000+0  67237-4 0  9999
2 57332  43.0034 272.8461 0001072 276.5425  83.5296 15.02537674135492
STARLINK-5585           
1 57333U 23099F   25363.08877373 -.00000381  00000+0 -13098-4 0  9994
2 57333  43.0056 272.8358 0001162 272.1339  87.9370 15.02542783135496
STARLINK-5589           
1 57334U 23099G   25363.48208997  .00001037  00000+0  91858-4 0  9996
2 57334  43.0034 270.6218 0001305 268.1952  91.8740 15.02532201135555
STARLINK-6316           
1 57335U 23099H   25363.47100750 -.00000538  00000+0 -24723-4 0  9998
2 57335  43.0035 270.5477 0001458 267.7489  92.3187 15.02530247135551
STARLINK-6320           
1 57336U 23099J   25363.44102340  .00000510  00000+0  52814-4 0  9993
2 57336  43.0016 270.3031 0001073 279.3264  80.7457 15.02536318135554
STARLINK-6322           
1 57337U 23099K   25363.47875659 -.00002534  00000+0 -17248-3 0  9998
2 57337  43.0055 270.6011 0001335 266.4622  93.6068 15.02548278135554
STARLINK-6374           
1 57338U 23099L   25363.47434348 -.00003545  00000+0 -24764-3 0  9999
2 57338  43.0022 270.5646 0000715 281.2176  78.8586 15.02509405135551
STARLINK-6332           
1 57339U 23099M   25363.48098476  .00000195  00000+0  29487-4 0  9993
2 57339  43.0049 270.6158 0000994 278.3977  81.6752 15.02532992135559
STARLINK-6321           
1 57340U 23099N   25363.46210253 -.00003700  00000+0 -25881-3 0  9992
2 57340  43.0089 270.4724 0002111 269.2325  90.8275 15.02555773135555
STARLINK-6377           
1 57341U 23099P   25363.46766580 -.00000523  00000+0 -23630-4 0  9993
2 57341  43.0043 270.5152 0001123 279.4838  80.5878 15.02531248135552
STARLINK-6375           
1 57342U 23099Q   25363.44546323  .00000858  00000+0  78587-4 0  9993
2 57342  43.0033 270.3524 0001169 268.1788  91.8920 15.02536578135556
STARLINK-6379           
1 57343U 23099R   25362.46716186  .00000562  00000+0  56680-4 0  9993
2 57343  43.0049 275.9109 0001217 269.6153  90.4550 15.02537804135401
STARLINK-6380           
1 57344U 23099S   25362.45828375  .00000528  00000+0  54155-4 0  9994
2 57344  43.0024 275.8416 0000948 277.7391  82.3344 15.02534978135409
STARLINK-6373           
1 57345U 23099T   25363.45878882  .00000196  00000+0  29560-4 0  9997
2 57345  42.9982 270.4523 0000386 313.5069  46.5741 15.02533866135552
STARLINK-6359           
1 57346U 23099U   25363.43880397  .00000228  00000+0  31984-4 0  9999
2 57346  43.0034 270.2970 0001250 271.8554  88.2146 15.02535013135551
STARLINK-6378           
1 57347U 23099V   25363.45101547 -.00003664  00000+0 -25626-3 0  9999
2 57347  43.0044 270.3924 0001237 261.5907  98.4795 15.02543627135559
