[{"OBJECT_NAME":"STARLINK-6234","OBJECT_ID":"2023-099D","EPOCH":"2025-12-29T03:48:20.858400","MEAN_MOTION":15.02547733,"ECCENTRICITY":0.00010271,"INCLINATION":43.0048,"RA_OF_ASC_NODE":272.5017,"ARG_OF_PERICENTER":276.0888,"MEAN_ANOMALY":83.9837,"EPHEMERIS_TYPE":0,"CLASSIFICATION_TYPE":"U","NORAD_CAT_ID":57331,"ELEMENT_SET_NO":999,"REV_AT_EPOCH":13550,"BSTAR":-0.00015830458,"MEAN_MOTION_DOT":-2.342e-5,"MEAN_MOTION_DDOT":0},{"OBJECT_NAME":"STARLINK-5831","OBJECT_ID":"2023-099E","EPOCH":"2025-12-29T02:09:25.768512","MEAN_MOTION":15.02537674,"ECCENTRICITY":0.00010721,"INCLINATION":43.0034,"RA_OF_ASC_NODE":272.8461,"ARG_OF_PERICENTER":276.5425,"MEAN_ANOMALY":83.5296,"EPHEMERIS_TYPE":0,"CLASSIFICATION_TYPE":"U","NORAD_CAT_ID":57332,"ELEMENT_SET_NO":999,"REV_AT_EPOCH":13549,"BSTAR":6.7237422e-5,"MEAN_MOTION_DOT":7.05e-6,"MEAN_MOTION_DDOT":0},{"OBJECT_NAME":"STARLINK-5585","OBJECT_ID":"2023-099F","EPOCH":"2025-12-29T02:07:50.050272","MEAN_MOTION":15.02542783,"ECCENTRICITY":0.00011625,"INCLINATION":43.0056,"RA_OF_ASC_NODE":272.8358,"ARG_OF_PERICENTER":272.1339,"MEAN_ANOMALY":87.937,"EPHEMERIS_TYPE":0,"CLASSIFICATION_TYPE":"U","NORAD_CAT_ID":57333,"ELEMENT_SET_NO":999,"REV_AT_EPOCH":13549,"BSTAR":-1.3097741e-5,"MEAN_MOTION_DOT":-3.81e-6,"MEAN_MOTION_DDOT":0},{"OBJECT_NAME":"STARLINK-5589","OBJECT_ID":"2023-099G","EPOCH":"2025-12-29T11:34:12.573408","MEAN_MOTION":15.02532201,"ECCENTRICITY":0.0001305,"INCLINATION":43.0034,"RA_OF_ASC_NODE":270.6218,"ARG_OF_PERICENTER":268.1952,"MEAN_ANOMALY":91.874,"EPHEMERIS_TYPE":0,"CLASSIFICATION_TYPE":"U","NORAD_CAT_ID":57334,"ELEMENT_SET_NO":999,"REV_AT_EPOCH":13555,"BSTAR":9.1858e-5,"MEAN_MOTION_DOT":1.037e-5,"MEAN_MOTION_DDOT":0},{"OBJECT_NAME":"STARLINK-6316","OBJECT_ID":"2023-099H","EPOCH":"2025-12-29T11:18:15.048000","MEAN_MOTION":15.02530247,"ECCENTRICITY":0.0001458,"INCLINATION":43.0035,"RA_OF_ASC_NODE":270.5477,"ARG_OF_PERICENTER":267.7489,"MEAN_ANOMALY":92.3187,"EPHEMERIS_TYPE":0,"CLASSIFICATION_TYPE":"U","NORAD_CAT_ID":57335,"ELEMENT_SET_NO":999,"REV_AT_EPOCH":13555,"BSTAR":-2.4723e-5,"MEAN_MOTION_DOT":-5.38e-6,"MEAN_MOTION_DDOT":0},{"OBJECT_NAME":"STARLINK-6320","OBJECT_ID":"2023-099J","EPOCH":"2025-12-29T10:35:04.421760","MEAN_MOTION":15.02536318,"ECCENTRICITY":0.0001073,"INCLINATION":43.0016,"RA_OF_ASC_NODE":270.3031,"ARG_OF_PERICENTER":279.3264,"MEAN_ANOMALY":80.7457,"EPHEMERIS_TYPE":0,"CLASSIFICATION_TYPE":"U","NORAD_CAT_ID":57336,"ELEMENT_SET_NO":999,"REV_AT_EPOCH":13555,"BSTAR":5.2814e-5,"MEAN_MOTION_DOT":5.1e-6,"MEAN_MOTION_DDOT":0},{"OBJECT_NAME":"STARLINK-6322","OBJECT_ID":"2023-099K","EPOCH":"2025-12-29T11:29:24.569376","MEAN_MOTION":15.02548278,"ECCENTRICITY":0.0001335,"INCLINATION":43.0055,"RA_OF_ASC_NODE":270.6011,"ARG_OF_PERICENTER":266.4622,"MEAN_ANOMALY":93.6068,"EPHEMERIS_TYPE":0,"CLASSIFICATION_TYPE":"U","NORAD_CAT_ID":57337,"ELEMENT_SET_NO":999,"REV_AT_EPOCH":13555,"BSTAR":-0.00017248,"MEAN_MOTION_DOT":-2.534e-5,"MEAN_MOTION_DDOT":0},{"OBJECT_NAME":"STARLINK-6374","OBJECT_ID":"2023-099L","EPOCH":"2025-12-29T11:23:03.276672","MEAN_MOTION":15.02509405,"ECCENTRICITY":7.15e-5,"INCLINATION":43.0022,"RA_OF_ASC_NODE":270.5646,"ARG_OF_PERICENTER":281.2176,"MEAN_ANOMALY":78.8586,"EPHEMERIS_TYPE":0,"CLASSIFICATION_TYPE":"U","NORAD_CAT_ID":57338,"ELEMENT_SET_NO":999,"REV_AT_EPOCH":13555,"BSTAR":-0.00024764,"MEAN_MOTION_DOT":-3.545e-5,"MEAN_MOTION_DDOT":0},{"OBJECT_NAME":"STARLINK-6332","OBJECT_ID":"2023-099M","EPOCH":"2025-12-29T11:32:37.083264","MEAN_MOTION":15.02532992,"ECCENTRICITY":9.94e-5,"INCLINATION":43.0049,"RA_OF_ASC_NODE":270.6158,"ARG_OF_PERICENTER":278.3977,"MEAN_ANOMALY":81.6752,"EPHEMERIS_TYPE":0,"CLASSIFICATION_TYPE":"U","NORAD_CAT_ID":57339,"ELEMENT_SET_NO":999,"REV_AT_EPOCH":13555,"BSTAR":2.9487e-5,"MEAN_MOTION_DOT":1.95e-6,"MEAN_MOTION_DDOT":0},{"OBJECT_NAME":"STARLINK-6321","OBJECT_ID":"2023-099N","EPOCH":"2025-12-29T11:05:25.658592","MEAN_MOTION":15.02555773,"ECCENTRICITY":0.0002111,"INCLINATION":43.0089,"RA_OF_ASC_NODE":270.4724,"ARG_OF_PERICENTER":269.2325,"MEAN_ANOMALY":90.8275,"EPHEMERIS_TYPE":0,"CLASSIFICATION_TYPE":"U","NORAD_CAT_ID":57340,"ELEMENT_SET_NO":999,"REV_AT_EPOCH":13555,"BSTAR":-0.00025881,"MEAN_MOTION_DOT":-3.7e-5,"MEAN_MOTION_DDOT":0},{"OBJECT_NAME":"STARLINK-6377","OBJECT_ID":"2023-099P","EPOCH":"2025-12-29T11:13:26.325120","MEAN_MOTION":15.02531248,"ECCENTRICITY":0.0001123,"INCLINATION":43.0043,"RA_OF_ASC_NODE":270.5152,"ARG_OF_PERICENTER":279.4838,"MEAN_ANOMALY":80.5878,"EPHEMERIS_TYPE":0,"CLASSIFICATION_TYPE":"U","NORAD_CAT_ID":57341,"ELEMENT_SET_NO":999,"REV_AT_EPOCH":13555,"BSTAR":-2.363e-5,"MEAN_MOTION_DOT":-5.23e-6,"MEAN_MOTION_DDOT":0},{"OBJECT_NAME":"STARLINK-6375","OBJECT_ID":"2023-099Q","EPOCH":"2025-12-29T10:41:28.023072","MEAN_MOTION":15.02536578,"ECCENTRICITY":0.0001169,"INCLINATION":43.0033,"RA_OF_ASC_NODE":270.3524,"ARG_OF_PERICENTER":268.1788,"MEAN_ANOMALY":91.892,"EPHEMERIS_TYPE":0,"CLASSIFICATION_TYPE":"U","NORAD_CAT_ID":57342,"ELEMENT_SET_NO":999,"REV_AT_EPOCH":13555,"BSTAR":7.8587e-5,"MEAN_MOTION_DOT":8.58e-6,"MEAN_MOTION_DDOT":0},{"OBJECT_NAME":"STARLINK-6379","OBJECT_ID":"2023-099R","EPOCH":"2025-12-28T11:12:42.784704","MEAN_MOTION":15.02537804,"ECCENTRICITY":0.00012176,"INCLINATION":43.0049,"RA_OF_ASC_NODE":275.9109,"ARG_OF_PERICENTER":269.6153,"MEAN_ANOMALY":90.455,"EPHEMERIS_TYPE":0,"CLASSIFICATION_TYPE":"U","NORAD_CAT_ID":57343,"ELEMENT_SET_NO":999,"REV_AT_EPOCH":13540,"BSTAR":5.6679716e-5,"MEAN_MOTION_DOT":5.62e-6,"MEAN_MOTION_DDOT":0},{"OBJECT_NAME":"STARLINK-6380","OBJECT_ID":"2023-099S","EPOCH":"2025-12-28T10:59:55.716000","MEAN_MOTION":15.02534978,"ECCENTRICITY":9.482e-5,"INCLINATION":43.0024,"RA_OF_ASC_NODE":275.8416,"ARG_OF_PERICENTER":277.7391,"MEAN_ANOMALY":82.3344,"EPHEMERIS_TYPE":0,"CLASSIFICATION_TYPE":"U","NORAD_CAT_ID":57344,"ELEMENT_SET_NO":999,"REV_AT_EPOCH":13540,"BSTAR":5.4154513e-5,"MEAN_MOTION_DOT":5.28e-6,"MEAN_MOTION_DDOT":0},{"OBJECT_NAME":"STARLINK-6373","OBJECT_ID":"2023-099T","EPOCH":"2025-12-29T11:00:39.354048","MEAN_MOTION":15.02533866,"ECCENTRICITY":3.86e-5,"INCLINATION":42.9982,"RA_OF_ASC_NODE":270.4523,"ARG_OF_PERICENTER":313.5069,"MEAN_ANOMALY":46.5741,"EPHEMERIS_TYPE":0,"CLASSIFICATION_TYPE":"U","NORAD_CAT_ID":57345,"ELEMENT_SET_NO":999,"REV_AT_EPOCH":13555,"BSTAR":2.956e-5,"MEAN_MOTION_DOT":1.96e-6,"MEAN_MOTION_DDOT":0},{"OBJECT_NAME":"STARLINK-6359","OBJECT_ID":"2023-099U","EPOCH":"2025-12-29T10:31:52.663008","MEAN_MOTION":15.02535013,"ECCENTRICITY":0.000125,"INCLINATION":43.0034,"RA_OF_ASC_NODE":270.297,"ARG_OF_PERICENTER":271.8554,"MEAN_ANOMALY":88.2146,"EPHEMERIS_TYPE":0,"CLASSIFICATION_TYPE":"U","NORAD_CAT_ID":57346,"ELEMENT_SET_NO":999,"REV_AT_EPOCH":13555,"BSTAR":3.1984e-5,"MEAN_MOTION_DOT":2.28e-6,"MEAN_MOTION_DDOT":0},{"OBJECT_NAME":"STARLINK-6378","OBJECT_ID":"2023-099V","EPOCH":"2025-12-29T10:49:27.736608","MEAN_MOTION":15.02543627,"ECCENTRICITY":0.0001237,"INCLINATION":43.0044,"RA_OF_ASC_NODE":270.3924,"ARG_OF_PERICENTER":261.5907,"MEAN_ANOMALY":98.4795,"EPHEMERIS_TYPE":0,"CLASSIFICATION_TYPE":"U","NORAD_CAT_ID":57347,"ELEMENT_SET_NO":999,"REV_AT_EPOCH":13555,"BSTAR":-0.00025626,"MEAN_MOTION_DOT":-3.664e-5,"MEAN_MOTION_DDOT":0}]
